satname,norad_id,inclination_deg,eccentricity,mean_motion_rev_per_day,perigee_km,apogee_km,l1,l2
STARLINK-1309,45414,53.0549,0.0001885,15.06401586,545.901269794068,548.5121243678677,1 45414U 20019BG  25265.47222710  .00004866  00000+0  34534-3 0  9990,2 45414  53.0549 171.7768 0001885  91.6762 268.4443 15.06401586304493
STARLINK-1316,45415,53.054,0.0001421,15.06401553,546.2227068673119,548.1908895747656,1 45415U 20019BH  25265.43169402  .00000166  00000+0  30039-4 0  9991,2 45415  53.0540 171.9552 0001421  90.6295 269.4857 15.06401553304522
STARLINK-1318,45416,53.054,9.69e-05,15.5555739,399.8759961555879,401.1897023723741,1 45416U 20019BJ  25264.97979636  .00051262  00000+0  73801-3 0  9994,2 45416  53.0540 156.1257 0000969 135.9906 224.1181 15.55557390304699
STARLINK-1286,45417,53.0547,0.0001547,15.06391136,546.1673693301909,548.3100805794911,1 45417U 20019BK  25265.53581997 -.00000904  00000+0 -41834-4 0  9998,2 45417  53.0547 201.4947 0001547  97.5523 262.5641 15.06391136304370
STARLINK-1308,45419,53.0546,0.000147,15.06394677,546.2098435784492,548.2459008508795,1 45419U 20019BM  25265.53212853 -.00000190  00000+0  61463-5 0  9999,2 45419  53.0546 201.5100 0001470  92.0175 268.0982 15.06394677304126
STARLINK-1329,45531,53.0525,0.0001094,15.06408854,546.4267916728504,547.9420519999476,1 45531U 20025A   25265.36809446  .00004430  00000+0  31602-3 0  9992,2 45531  53.0525 142.2423 0001094  82.0310 278.0804 15.06408854299725
STARLINK-1338,45532,53.0529,0.0001588,15.06403385,546.1014397167064,548.3009271237606,1 45532U 20025B   25265.37916100  .00000180  00000+0  31009-4 0  9990,2 45532  53.0529 142.1933 0001588  85.8902 274.2268 15.06403385299727
STARLINK-1350,45535,53.0748,0.0002729,15.31026947,470.87745990081294,474.61667242412386,1 45535U 20025E   25264.87695514  .00013963  00000+0  47053-3 0  9998,2 45535  53.0748 102.9700 0002729 117.8578 242.2699 15.31026947300259
STARLINK-1362,45538,53.0541,0.0001284,15.06421274,546.25715057659,548.0355633426561,1 45538U 20025H   25265.07961659  .00008931  00000+0  61735-3 0  9992,2 45538  53.0541 143.2578 0001284  98.0991 262.0144 15.06421274299681
STARLINK-1368,45540,53.0547,0.0001339,15.06396381,546.2953440171596,548.1499553313433,1 45540U 20025K   25265.08429482  .00002584  00000+0  19233-3 0  9993,2 45540  53.0547 143.5167 0001339  86.2650 273.8492 15.06396381299674
STARLINK-1371,45542,53.0526,0.0001318,15.06408431,546.2729607238134,548.0984757923452,1 45542U 20025M   25265.38653825  .00011636  00000+0  79858-3 0  9995,2 45542  53.0526 142.1629 0001318  95.5637 264.5503 15.06408431299722
STARLINK-1372,45543,53.0538,0.0001404,15.06413599,546.1975661895867,548.142192361287,1 45543U 20025N   25264.95896609  .00008066  00000+0  55959-3 0  9996,2 45543  53.0538 144.0821 0001404  87.6592 272.4558 15.06413599298750
STARLINK-1373,45544,53.0535,0.0001671,15.0640122,546.0505936972895,548.365043935738,1 45544U 20025P   25265.37546956  .00001494  00000+0  11918-3 0  9996,2 45544  53.0535 142.2131 0001671  82.7364 277.3815 15.06401220299727
STARLINK-1294,45551,53.0505,0.0004711,15.51477917,409.2112269031968,415.6092805256467,1 45551U 20025W   25265.51367162  .00171352  00000+0  27976-2 0  9991,2 45551  53.0505  88.5432 0004711 222.5435 137.5209 15.51477917300496
STARLINK-1323,45553,53.036,0.0004817,15.89457511,300.58412116765976,307.02150198213076,1 45553U 20025Y   25265.58335648  .00166185  00000+0  54843-3 0  9996,2 45553  53.0360  70.6842 0004817  89.6380 147.9080 15.89457511  6104
STARLINK-1325,45554,53.0592,0.000145,15.46625147,425.6203932670969,427.59376905063255,1 45554U 20025Z   25265.51431668  .00093340  00000+0  18292-2 0  9998,2 45554  53.0592  80.3645 0001450 299.2861  60.8001 15.46625147300618
STARLINK-1327,45555,53.0535,0.0001556,15.06410779,546.1009429574951,548.2561011479593,1 45555U 20025AA  25264.88340175  .00004367  00000+0  31181-3 0  9994,2 45555  53.0535 124.4194 0001556  88.0111 272.1056 15.06410779299922
STARLINK-1336,45557,53.0389,0.0005407,15.85171662,312.22198773013224,319.4608559955341,1 45557U 20025AC  25265.58335648  .00261256  00000+0  10512-2 0  9999,2 45557  53.0389  76.2741 0005407 114.6579 215.0799 15.85171662  6092
STARLINK-1342,45558,53.0435,0.0001472,15.95373428,286.2929216757948,288.25521869485783,1 45558U 20025AD  25265.58335648  .00364080  63795-4  90417-3 0  9997,2 45558  53.0435  72.7671 0001472  87.2296 338.9891 15.95373428  6124
STARLINK-1355,45563,53.0282,0.0010683,16.16386143,222.32331301740032,236.44093838136996,1 45563U 20025AJ  25264.55664628  .01131163  91141-3  75472-3 0  9996,2 45563  53.0282   6.4074 0010683 339.3647  20.6957 16.16386143301540
STARLINK-1356,45564,53.0528,0.0001356,15.06411882,546.2360692325719,548.114213885362,1 45564U 20025AK  25265.01977812  .00002595  00000+0  19295-3 0  9997,2 45564  53.0528 123.8059 0001356  98.2907 261.8236 15.06411882299944
STARLINK-1357,45565,53.0659,0.0008533,15.25269536,484.11562721100927,495.8367491779809,1 45565U 20025AL  25265.56179559  .00080819  00000+0  31471-2 0  9994,2 45565  53.0659 112.5254 0008533 118.1472 242.0388 15.25269536300158
STARLINK-1361,45567,53.0504,6.96e-05,15.06385828,546.7729861349226,547.7370007004056,1 45567U 20025AN  25265.30361539 -.00001112  00000+0 -55795-4 0  9997,2 45567  53.0504 122.5327 0000696  73.9697 286.1369 15.06385828299999
STARLINK-1363,45568,53.0533,0.0001389,15.06402301,546.242575778515,548.1664356488036,1 45568U 20025AP  25265.31837055  .00000581  00000+0  57869-4 0  9991,2 45568  53.0533 122.7084 0001389  91.0042 269.1106 15.06402301299984
STARLINK-1366,45569,53.0545,0.0001357,15.06406335,546.252374979138,548.1319093083148,1 45569U 20025AQ  25265.30728077  .00000156  00000+0  29391-4 0  9991,2 45569  53.0545 122.5153 0001357  95.3532 264.7612 15.06406335299983
STARLINK-1376,45570,53.0533,0.0001155,15.06411554,546.3762731502356,547.97602048715,1 45570U 20025AR  25264.83548286  .00002124  00000+0  16142-3 0  9998,2 45570  53.0533 124.6360 0001155  83.9855 276.1266 15.06411554299916
STARLINK-1320,45572,53.0596,0.0008167,15.35574326,453.63105492835166,464.79918588182136,1 45572U 20025AT  25265.50441092  .00148129  00000+0  41478-2 0  9997,2 45572  53.0596  74.0092 0008167 180.8843 179.2146 15.35574326300700
STARLINK-1321,45573,53.0532,0.0001294,15.06405065,546.2998963916043,548.0921725809294,1 45573U 20025AU  25265.28608375  .00000200  00000+0  32319-4 0  9995,2 45573  53.0532 112.6106 0001294  87.3450 272.7687 15.06405065299825
STARLINK-1328,45576,53.0544,0.000206,15.5487849,401.1090545152392,403.90267937642056,1 45576U 20025AX  25265.54167959  .00183063  00000+0  26394-2 0  9998,2 45576  53.0544 103.0485 0002060 193.2416 166.8540 15.54878490300290
STARLINK-1331,45578,53.0536,0.0001248,15.06412846,546.3079084916762,548.0364656647716,1 45578U 20025AZ  25264.86589227  .00002835  00000+0  20904-3 0  9999,2 45578  53.0536 114.4978 0001248  88.3703 271.7429 15.06412846300070
STARLINK-1333,45580,53.0526,0.0001249,15.06390389,546.3760347116513,548.1059941396552,1 45580U 20025BB  25265.33677615 -.00002432  00000+0 -14444-3 0  9991,2 45580  53.0526 122.3848 0001249  93.5516 266.5616 15.06390389299992
STARLINK-1335,45581,53.0531,0.0001458,15.0640476,546.18725556954,548.2066829549767,1 45581U 20025BC  25265.27503035  .00000023  00000+0  20466-4 0  9993,2 45581  53.0531 112.6613 0001458  92.3560 267.7596 15.06404760300126
STARLINK-1337,45582,53.054,0.00015,15.0641627,546.1228983764167,548.2004879843716,1 45582U 20025BD  25264.83271346  .00003861  00000+0  27783-3 0  9993,2 45582  53.0540 114.6478 0001500  93.1661 266.9499 15.06416270300051
STARLINK-1347,45586,53.0597,0.0007732,15.245571,486.80361982594513,497.42777860000933,1 45586U 20025BH  25265.27866428  .00078713  00000+0  31328-2 0  9994,2 45586  53.0597 104.1424 0007732 121.9738 238.2012 15.24557100300231
STARLINK-1360,45588,53.05,0.0002862,15.66766487,366.2323514192958,370.09393362087303,1 45588U 20025BK  25265.51876706  .00092208  00000+0  85408-3 0  9997,2 45588  53.0500  33.7310 0002862 345.7972  14.2962 15.66766487301258
STARLINK-1364,45589,53.0542,0.0001465,15.06398445,546.2017595314801,548.2308880553528,1 45589U 20025BL  25265.56622492  .00001372  00000+0  11096-3 0  9998,2 45589  53.0542 111.3568 0001465  92.3882 267.7275 15.06398445300166
STARLINK-1365,45590,53.0547,0.0001498,15.0640468,546.1597993841315,548.23462951478,1 45590U 20025BM  25265.38284467  .00001387  00000+0  11200-3 0  9999,2 45590  53.0547 142.1790 0001498  83.1365 276.9794 15.06404680299739
STARLINK-1443,45660,53.0547,0.000128,15.06400348,546.3240468897093,548.0969358474986,1 45660U 20035D   25265.56714388  .00000664  00000+0  63438-4 0  9996,2 45660  53.0547 101.3503 0001280  93.3231 266.7904 15.06400348293393
STARLINK-1446,45663,53.0268,0.0006019,15.29666582,472.68223070025124,480.93421375877097,1 45663U 20035G   25265.49422643  .00108716  00000+0  36879-2 0  9995,2 45663  53.0268  71.5639 0006019 135.3633 224.7852 15.29666582293803
STARLINK-1448,45665,53.0535,0.0001105,15.0640179,546.4408214420782,547.9713222609562,1 45665U 20035J   25265.57082342  .00001737  00000+0  13546-3 0  9996,2 45665  53.0535 101.3307 0001105  90.2388 269.8728 15.06401790293381
STARLINK-1451,45668,53.0533,0.0001739,15.06401993,546.0011326350568,548.4097667390579,1 45668U 20035M   25265.57454650  .00000456  00000+0  49504-4 0  9995,2 45668  53.0533 101.6344 0001739  94.0644 266.0544 15.06401993293397
STARLINK-1452,45669,53.0472,0.0004796,15.21637026,497.60320454427347,504.2015791289232,1 45669U 20035N   25265.21935781  .00065755  00000+0  28619-2 0  9991,2 45669  53.0472  89.1659 0004796 197.4748 162.6083 15.21637026293538
STARLINK-1453,45670,53.0557,0.0001527,15.06370769,546.2436337867284,548.3586625971857,1 45670U 20035P   25265.45198006 -.00002187  00000+0 -12804-3 0  9992,2 45670  53.0557  71.8701 0001527  78.4960 281.6200 15.06370769293683
